STARLINK-30400
1 57937U 23148C   25358.05815690 -.00004205  00000+0 -12989-3 0  9990
2 57937  53.1619  15.4935 0001016  92.4058 267.7059 15.30208263126848